#aV2008 10 10  0  0   .00000000      96 DD+AD WGS84 FIT  NGA
## 1500 432000.00000000   900.00000000 54749  .0000000000000
+   32     1  2  3  4  5  6  7  8  9 10 11 12 13 14 15 16 17
+         18 19 20 21 22 23 24 25 26 27 28 29 30 31 32  0  0
+          0  0  0  0  0  0  0  0  0  0  0  0  0  0  0  0  0
+          0  0  0  0  0  0  0  0  0  0  0  0  0  0  0  0  0
+          0  0  0  0  0  0  0  0  0  0  0  0  0  0  0  0  0
++         0  0  0  0  0  0  0  0  0  0  0  0  0  0  0  0  0
++         0  0  0  0  0  0  0  0  0  0  0  0  0  0  0  0  0
++         0  0  0  0  0  0  0  0  0  0  0  0  0  0  0  0  0
++         0  0  0  0  0  0  0  0  0  0  0  0  0  0  0  0  0
++         0  0  0  0  0  0  0  0  0  0  0  0  0  0  0  0  0
%c cc cc ccc ccc cccc cccc cccc cccc ccccc ccccc ccccc ccccc
%c cc cc ccc ccc cccc cccc cccc cccc ccccc ccccc ccccc ccccc
%f  0.0000000  0.000000000  0.00000000000  0.000000000000000
%f  0.0000000  0.000000000  0.00000000000  0.000000000000000
%i    0    0    0    0      0      0      0      0         0
%i    0    0    0    0      0      0      0      0         0
/*      NGA, ST. LOUIS,MO.                                  
/*   EPHEMERIS COMPUTED FROM  3 DAYS OF DATA                
/* CCCCCCCCCCCCCCCCCCCCCCCCCCCCCCCCCCCCCCCCCCCCCCCCCCCCCCCCC
/* CCCCCCCCCCCCCCCCCCCCCCCCCCCCCCCCCCCCCCCCCCCCCCCCCCCCCCCCC
*  2008 10 10 13  0   .00000000                                                 
P  1  18294.960093 -19059.499595   2419.389019      3.427706                    
V  1   3332.549746   -505.670672 -32290.096205       .025606                    
P  2  -3759.361782  15078.129567  21400.646596    181.210200                    
V  2 -26805.964282  -6440.012335   -540.207592      -.027578                    
P  3   7497.312632 -23041.139868 -10740.812880    294.959040                    
V  3  11004.965141  -8474.964234  26924.087305       .052460                    
P  4 -18622.808398   8175.032290  17159.437234   -196.357342                    
V  4 -20800.046512  -7163.866594 -18671.007732      -.114818                    
P  5  15308.851409  19298.377231   9802.904613   -251.807674                    
V  5   1984.437310  13047.152987 -27820.747280      -.708516                    
P  6  12698.254662 -22223.418203  -6901.664698    160.214132                    
V  6   8601.082742  -4484.355972  29468.889626      -.039862                    
P  7 -25663.645265  -6981.379863   1026.369459     21.307316                    
V  7   1913.300612  -2232.336728  31729.096631       .013027                    
P  8 -24200.221113    669.072348 -11560.730539   -173.419891                    
V  8 -13341.004448  -5459.359005  27307.428064      -.016118                    
P  9  16165.173212  14473.810571 -16040.578283     19.069842                    
V  9 -19021.054364  -2470.247422 -22184.010589       .018621                    
P 10   -221.622379  24630.101555   9355.114159     -5.831923                    
V 10  -5849.734949 -11048.107145  28852.038376      -.004820                    
P 11 -18796.556263 -12451.205008 -14464.433542     18.184078                    
V 11  18294.292410  -2576.940841 -21466.542485      -.008768                    
P 12  11261.856835  23300.631187   6272.564585   -347.114920                    
V 12   -220.913309   8230.793902 -30439.214216       .018885                    
P 13 -17421.307919  -1278.986621  19889.976977    273.729014                    
V 13  17942.127222 -18035.443042  14473.818641       .011150                    
P 14  20890.941134 -15239.346747  -5679.128753   -209.233497                    
V 14  -3887.827872   6548.301412 -31366.846502       .047758                    
P 15   -299.067843  19209.630823 -18302.422102   -191.652575                    
V 15 -17064.625944  15968.462863  17031.339650      -.064014                    
P 16   4554.651011 -21668.459686  14570.019964    102.264362                    
V 16   6859.715872  17280.871139  23853.583193      -.021781                    
P 17 -21016.633435  14538.795068  -6848.612987     39.331731                    
V 17   4129.609389  -8276.098479 -30225.184847       .002289                    
P 18  16390.799911   6527.391361 -19752.078406   -124.954985                    
V 18   5205.740673  24970.246619  12077.072877       .039801                    
P 19     79.463856 -18260.926998 -19141.359910     35.673301                    
V 19  19169.173464 -15387.961412  14912.495228       .000210                    
P 20 -13485.004892 -20964.480586   9114.247188    102.295382                    
V 20   -650.948067 -12104.914906 -28416.751608      -.010633                    
P 21  26270.213155   4143.936093  -3783.124715     47.268298                    
V 21   4036.609912   4240.408073  30308.247734      -.015445                    
P 22  13589.437862  -8501.130802 -21005.649376    210.436513                    
V 22   7223.592434  26158.628619  -5928.861860      -.003531                    
P 23 -10774.127992 -10377.523397  21892.236175    376.210084                    
V 23  19450.805644 -19995.751176   -170.146260       .013521                    
P 24  20846.423212  13274.681146   9504.287989    132.066253                    
V 24 -12298.917799   -577.564242  28514.964778       .030515                    
P 25 -23111.087097  -9606.883131   8974.545929    -77.354488                    
V 25  11186.485406   -868.603856  29199.510414       .372144                    
P 26  -5666.248656  20168.334789 -16488.292506       .739933                    
V 26 -15581.624438  12867.097847  22267.106925       .050829                    
P 27 -26243.467720  -4229.331138   -755.036356    224.093788                    
V 27  -1315.271050  -2691.747418  31899.347159       .028835                    
P 28 -13711.932767   6321.728696 -21433.331721    -23.034074                    
V 28  -7580.453927 -27142.598955  -3427.328196      -.001451                    
P 29  15972.605663   4623.177649  20810.863503    -34.921240                    
V 29 -17908.522979  19130.882872   9576.140103       .014366                    
P 30  16591.574734  12015.075199  16593.807678    101.258841                    
V 30   4999.216710  21272.450622 -19885.098696       .021698                    
P 31  15377.741264 -10017.385524  19441.616271    -31.596769                    
V 31  23267.479872   6706.142161 -15004.829414      -.023138                    
P 32  -7780.751677 -25283.962092   3796.171424    316.412781                    
V 32   1491.515416  -4646.214278 -31284.148578      -.003123                    
EOF
